APRIZESAT 2             
1 28366U 04025A   20116.50543561  .00000022  00000-0  20696-4 0  9996
2 28366  98.2713   9.6597 0107933 165.4019 195.0327 14.36701147829394
SAUDICOMSAT 1           
1 28369U 04025D   20116.46411845  .00000048  00000-0  22935-4 0  9999
2 28369  98.3341  67.5656 0034687  56.7121 303.7389 14.52545705838171
SAUDICOMSAT 2           
1 28370U 04025E   20116.59250926  .00000052  00000-0  26265-4 0  9991
2 28370  98.4280  64.5247 0057053 215.3918 144.3483 14.47477876835378
APRIZESAT 1             
1 28372U 04025G   20116.42174382  .00000031  00000-0  19924-4 0  9997
2 28372  98.3876  65.5776 0047167 140.2817 220.1847 14.49623197836657
NANOSAT-1               
1 28493U 04049B   20116.51662962  .00000075  00000-0  19411-4 0  9992
2 28493  98.1173 206.2074 0003127 275.2716  84.8135 14.73569181824559
SAUDICOMSAT 7           
1 31119U 07012C   20116.40109456  .00000056  00000-0  20540-4 0  9990
2 31119  98.0923  63.3932 0060716  25.6166 334.8022 14.61780034694353
SAUDICOMSAT 6           
1 31121U 07012E   20116.55218168  .00000052  00000-0  20656-4 0  9994
2 31121  98.1455  58.2963 0077837 109.7203 251.2414 14.58579386692810
SAUDICOMSAT 5           
1 31124U 07012H   20116.42335219  .00000051  00000-0  19118-4 0  9990
2 31124  98.0570  66.0563 0051233 341.3275  18.6047 14.63482423695055
SAUDICOMSAT 3           
1 31125U 07012J   20116.40717165  .00000078  00000-0  23418-4 0  9990
2 31125  98.0190  68.8067 0042039 296.8169  62.8738 14.65239680695902
SAUDICOMSAT 4           
1 31127U 07012L   20116.56855129  .00000050  00000-0  19826-4 0  9990
2 31127  98.1196  61.3719 0069310  65.0811 295.7572 14.60293858693615
APRIZESAT 4             
1 35684U 09041D   20116.47897657  .00000052  00000-0  14669-4 0  9990
2 35684  98.2708  93.7271 0046814 344.6813  15.2978 14.79267547579301
APRIZESAT 3             
1 35686U 09041F   20116.38706444  .00000064  00000-0  13605-4 0  9997
2 35686  98.1881 171.6883 0072033 220.4055 139.1797 14.87378886582194
AISSAT 1                
1 36797U 10035C   20116.62133216  .00000134  00000-0  21776-4 0  9990
2 36797  98.1646 264.0126 0010919 188.8137 171.2888 14.86295808530144
S-NET D                 
1 43186U 18014G   20116.56952407  .00000575  00000-0  55233-4 0  9993
2 43186  97.6976  25.2588 0012398  47.9090 312.3184 14.96790367121783
S-NET B                 
1 43187U 18014H   20116.56934325  .00000582  00000-0  55831-4 0  9995
2 43187  97.6974  25.2385 0012386  47.8987 312.3286 14.96790258121780
S-NET A                 
1 43188U 18014J   20116.56920549  .00000592  00000-0  56689-4 0  9992
2 43188  97.6977  25.2661 0012389  47.8988 312.3285 14.96789949121789
S-NET C                 
1 43189U 18014K   20116.43590290  .00000591  00000-0  56629-4 0  9998
2 43189  97.6974  25.1030 0012390  48.2840 311.9439 14.96789369120310
